[
    {
        "Altitude(m)": 591605.9706508536,
        "Argument of Periapsis(deg)": -0.037671934638287344,
        "Eccentricity": 0.0,
        "Inclination(deg)": 97.0,
        "Latitude(deg)": -80.98451302163548,
        "Longitude(deg)": 85.74715788616476,
        "Mean Anomaly(deg)": 264.2478387819791,
        "RAAN(deg)": 60.00991175603085,
        "Satellite Name": "Starlink Shell 3 1733",
        "Satellite Number": 1733,
        "Semi-Major Axis(m)": 6938478.169268562,
        "Time(s)": 950
    },
    {
        "Altitude(m)": 591650.4457879422,
        "Argument of Periapsis(deg)": -0.03806848131869037,
        "Eccentricity": 0.0,
        "Inclination(deg)": 97.0,
        "Latitude(deg)": -81.36415951258896,
        "Longitude(deg)": 82.5102577798084,
        "Mean Anomaly(deg)": 264.87331497968415,
        "RAAN(deg)": 60.01001609030486,
        "Satellite Name": "Starlink Shell 3 1733",
        "Satellite Number": 1733,
        "Semi-Major Axis(m)": 6938478.169268562,
        "Time(s)": 960
    },
    {
        "Altitude(m)": 591689.8809723046,
        "Argument of Periapsis(deg)": -0.0384650279990934,
        "Eccentricity": 0.0,
        "Inclination(deg)": 97.0,
        "Latitude(deg)": -81.71498877013563,
        "Longitude(deg)": 78.9936358368187,
        "Mean Anomaly(deg)": 265.4987911773892,
        "RAAN(deg)": 60.01012042457886,
        "Satellite Name": "Starlink Shell 3 1733",
        "Satellite Number": 1733,
        "Semi-Major Axis(m)": 6938478.169268562,
        "Time(s)": 970
    },
    {
        "Altitude(m)": 591724.2602086625,
        "Argument of Periapsis(deg)": -0.03886157467949641,
        "Eccentricity": 0.0,
        "Inclination(deg)": 97.0,
        "Latitude(deg)": -82.03319742865092,
        "Longitude(deg)": 75.18700636338664,
        "Mean Anomaly(deg)": 266.12426737509423,
        "RAAN(deg)": 60.01022475885287,
        "Satellite Name": "Starlink Shell 3 1733",
        "Satellite Number": 1733,
        "Semi-Major Axis(m)": 6938478.169268562,
        "Time(s)": 980
    },
    {
        "Altitude(m)": 591753.5695490809,
        "Argument of Periapsis(deg)": -0.03925812135989944,
        "Eccentricity": 0.0,
        "Inclination(deg)": 97.0,
        "Latitude(deg)": -82.31473657707922,
        "Longitude(deg)": 71.0881510147992,
        "Mean Anomaly(deg)": 266.7497435727993,
        "RAAN(deg)": 60.010329093126884,
        "Satellite Name": "Starlink Shell 3 1733",
        "Satellite Number": 1733,
        "Semi-Major Axis(m)": 6938478.169268562,
        "Time(s)": 990
    }
]